{
  "type": "FeatureCollection",
  "features": [
    {
      "type": "Feature",
      "geometry": {
        "type": "LineString",
        "coordinates": [
          [
            -121.700575,
            38.5
          ],
          [
            -121.697125,
            38.5
          ]
        ]
      },
      "properties": {
        "segment_id": "seg-00-00",
        "name": "Row 0 Ave 0-2"
      }
    },
    {
      "type": "Feature",
      "geometry": {
        "type": "LineString",
        "coordinates": [
          [
            -121.697125,
            38.5
          ],
          [
            -121.693675,
            38.5
          ]
        ]
      },
      "properties": {
        "segment_id": "seg-00-03",
        "name": "Row 0 Ave 3-5"
      }
    },
    {
      "type": "Feature",
      "geometry": {
        "type": "LineString",
        "coordinates": [
          [
            -121.693675,
            38.5
          ],
          [
            -121.690225,
            38.5
          ]
        ]
      },
      "properties": {
        "segment_id": "seg-00-06",
        "name": "Row 0 Ave 6-8"
      }
    },
    {
      "type": "Feature",
      "geometry": {
        "type": "LineString",
        "coordinates": [
          [
            -121.700575,
            38.5009
          ],
          [
            -121.697125,
            38.5009
          ]
        ]
      },
      "properties": {
        "segment_id": "seg-01-00",
        "name": "Row 1 Ave 0-2"
      }
    },
    {
      "type": "Feature",
      "geometry": {
        "type": "LineString",
        "coordinates": [
          [
            -121.697125,
            38.5009
          ],
          [
            -121.693675,
            38.5009
          ]
        ]
      },
      "properties": {
        "segment_id": "seg-01-03",
        "name": "Row 1 Ave 3-5"
      }
    },
    {
      "type": "Feature",
      "geometry": {
        "type": "LineString",
        "coordinates": [
          [
            -121.693675,
            38.5009
          ],
          [
            -121.690225,
            38.5009
          ]
        ]
      },
      "properties": {
        "segment_id": "seg-01-06",
        "name": "Row 1 Ave 6-8"
      }
    },
    {
      "type": "Feature",
      "geometry": {
        "type": "LineString",
        "coordinates": [
          [
            -121.700575,
            38.5018
          ],
          [
            -121.697125,
            38.5018
          ]
        ]
      },
      "properties": {
        "segment_id": "seg-02-00",
        "name": "Row 2 Ave 0-2"
      }
    },
    {
      "type": "Feature",
      "geometry": {
        "type": "LineString",
        "coordinates": [
          [
            -121.697125,
            38.5018
          ],
          [
            -121.693675,
            38.5018
          ]
        ]
      },
      "properties": {
        "segment_id": "seg-02-03",
        "name": "Row 2 Ave 3-5"
      }
    },
    {
      "type": "Feature",
      "geometry": {
        "type": "LineString",
        "coordinates": [
          [
            -121.693675,
            38.5018
          ],
          [
            -121.690225,
            38.5018
          ]
        ]
      },
      "properties": {
        "segment_id": "seg-02-06",
        "name": "Row 2 Ave 6-8"
      }
    },
    {
      "type": "Feature",
      "geometry": {
        "type": "LineString",
        "coordinates": [
          [
            -121.700575,
            38.5027
          ],
          [
            -121.697125,
            38.5027
          ]
        ]
      },
      "properties": {
        "segment_id": "seg-03-00",
        "name": "Row 3 Ave 0-2"
      }
    },
    {
      "type": "Feature",
      "geometry": {
        "type": "LineString",
        "coordinates": [
          [
            -121.697125,
            38.5027
          ],
          [
            -121.693675,
            38.5027
          ]
        ]
      },
      "properties": {
        "segment_id": "seg-03-03",
        "name": "Row 3 Ave 3-5"
      }
    },
    {
      "type": "Feature",
      "geometry": {
        "type": "LineString",
        "coordinates": [
          [
            -121.693675,
            38.5027
          ],
          [
            -121.690225,
            38.5027
          ]
        ]
      },
      "properties": {
        "segment_id": "seg-03-06",
        "name": "Row 3 Ave 6-8"
      }
    },
    {
      "type": "Feature",
      "geometry": {
        "type": "LineString",
        "coordinates": [
          [
            -121.700575,
            38.5036
          ],
          [
            -121.697125,
            38.5036
          ]
        ]
      },
      "properties": {
        "segment_id": "seg-04-00",
        "name": "Row 4 Ave 0-2"
      }
    },
    {
      "type": "Feature",
      "geometry": {
        "type": "LineString",
        "coordinates": [
          [
            -121.697125,
            38.5036
          ],
          [
            -121.693675,
            38.5036
          ]
        ]
      },
      "properties": {
        "segment_id": "seg-04-03",
        "name": "Row 4 Ave 3-5"
      }
    },
    {
      "type": "Feature",
      "geometry": {
        "type": "LineString",
        "coordinates": [
          [
            -121.693675,
            38.5036
          ],
          [
            -121.690225,
            38.5036
          ]
        ]
      },
      "properties": {
        "segment_id": "seg-04-06",
        "name": "Row 4 Ave 6-8"
      }
    },
    {
      "type": "Feature",
      "geometry": {
        "type": "LineString",
        "coordinates": [
          [
            -121.700575,
            38.5045
          ],
          [
            -121.697125,
            38.5045
          ]
        ]
      },
      "properties": {
        "segment_id": "seg-05-00",
        "name": "Row 5 Ave 0-2"
      }
    },
    {
      "type": "Feature",
      "geometry": {
        "type": "LineString",
        "coordinates": [
          [
            -121.697125,
            38.5045
          ],
          [
            -121.693675,
            38.5045
          ]
        ]
      },
      "properties": {
        "segment_id": "seg-05-03",
        "name": "Row 5 Ave 3-5"
      }
    },
    {
      "type": "Feature",
      "geometry": {
        "type": "LineString",
        "coordinates": [
          [
            -121.693675,
            38.5045
          ],
          [
            -121.690225,
            38.5045
          ]
        ]
      },
      "properties": {
        "segment_id": "seg-05-06",
        "name": "Row 5 Ave 6-8"
      }
    },
    {
      "type": "Feature",
      "geometry": {
        "type": "LineString",
        "coordinates": [
          [
            -121.700575,
            38.5054
          ],
          [
            -121.697125,
            38.5054
          ]
        ]
      },
      "properties": {
        "segment_id": "seg-06-00",
        "name": "Row 6 Ave 0-2"
      }
    },
    {
      "type": "Feature",
      "geometry": {
        "type": "LineString",
        "coordinates": [
          [
            -121.697125,
            38.5054
          ],
          [
            -121.693675,
            38.5054
          ]
        ]
      },
      "properties": {
        "segment_id": "seg-06-03",
        "name": "Row 6 Ave 3-5"
      }
    },
    {
      "type": "Feature",
      "geometry": {
        "type": "LineString",
        "coordinates": [
          [
            -121.693675,
            38.5054
          ],
          [
            -121.690225,
            38.5054
          ]
        ]
      },
      "properties": {
        "segment_id": "seg-06-06",
        "name": "Row 6 Ave 6-8"
      }
    },
    {
      "type": "Feature",
      "geometry": {
        "type": "LineString",
        "coordinates": [
          [
            -121.700575,
            38.5063
          ],
          [
            -121.697125,
            38.5063
          ]
        ]
      },
      "properties": {
        "segment_id": "seg-07-00",
        "name": "Row 7 Ave 0-2"
      }
    },
    {
      "type": "Feature",
      "geometry": {
        "type": "LineString",
        "coordinates": [
          [
            -121.697125,
            38.5063
          ],
          [
            -121.693675,
            38.5063
          ]
        ]
      },
      "properties": {
        "segment_id": "seg-07-03",
        "name": "Row 7 Ave 3-5"
      }
    },
    {
      "type": "Feature",
      "geometry": {
        "type": "LineString",
        "coordinates": [
          [
            -121.693675,
            38.5063
          ],
          [
            -121.690225,
            38.5063
          ]
        ]
      },
      "properties": {
        "segment_id": "seg-07-06",
        "name": "Row 7 Ave 6-8"
      }
    },
    {
      "type": "Feature",
      "geometry": {
        "type": "LineString",
        "coordinates": [
          [
            -121.700575,
            38.5072
          ],
          [
            -121.697125,
            38.5072
          ]
        ]
      },
      "properties": {
        "segment_id": "seg-08-00",
        "name": "Row 8 Ave 0-2"
      }
    },
    {
      "type": "Feature",
      "geometry": {
        "type": "LineString",
        "coordinates": [
          [
            -121.697125,
            38.5072
          ],
          [
            -121.693675,
            38.5072
          ]
        ]
      },
      "properties": {
        "segment_id": "seg-08-03",
        "name": "Row 8 Ave 3-5"
      }
    },
    {
      "type": "Feature",
      "geometry": {
        "type": "LineString",
        "coordinates": [
          [
            -121.693675,
            38.5072
          ],
          [
            -121.690225,
            38.5072
          ]
        ]
      },
      "properties": {
        "segment_id": "seg-08-06",
        "name": "Row 8 Ave 6-8"
      }
    },
    {
      "type": "Feature",
      "geometry": {
        "type": "LineString",
        "coordinates": [
          [
            -121.700575,
            38.5
          ],
          [
            -121.700575,
            38.5009
          ]
        ]
      },
      "properties": {
        "segment_id": "xst-00-00",
        "name": "Cross St 0 Row 0-1"
      }
    },
    {
      "type": "Feature",
      "geometry": {
        "type": "LineString",
        "coordinates": [
          [
            -121.699425,
            38.5
          ],
          [
            -121.699425,
            38.5009
          ]
        ]
      },
      "properties": {
        "segment_id": "xst-00-01",
        "name": "Cross St 1 Row 0-1"
      }
    },
    {
      "type": "Feature",
      "geometry": {
        "type": "LineString",
        "coordinates": [
          [
            -121.698275,
            38.5
          ],
          [
            -121.698275,
            38.5009
          ]
        ]
      },
      "properties": {
        "segment_id": "xst-00-02",
        "name": "Cross St 2 Row 0-1"
      }
    },
    {
      "type": "Feature",
      "geometry": {
        "type": "LineString",
        "coordinates": [
          [
            -121.697125,
            38.5
          ],
          [
            -121.697125,
            38.5009
          ]
        ]
      },
      "properties": {
        "segment_id": "xst-00-03",
        "name": "Cross St 3 Row 0-1"
      }
    },
    {
      "type": "Feature",
      "geometry": {
        "type": "LineString",
        "coordinates": [
          [
            -121.695975,
            38.5
          ],
          [
            -121.695975,
            38.5009
          ]
        ]
      },
      "properties": {
        "segment_id": "xst-00-04",
        "name": "Cross St 4 Row 0-1"
      }
    },
    {
      "type": "Feature",
      "geometry": {
        "type": "LineString",
        "coordinates": [
          [
            -121.694825,
            38.5
          ],
          [
            -121.694825,
            38.5009
          ]
        ]
      },
      "properties": {
        "segment_id": "xst-00-05",
        "name": "Cross St 5 Row 0-1"
      }
    },
    {
      "type": "Feature",
      "geometry": {
        "type": "LineString",
        "coordinates": [
          [
            -121.693675,
            38.5
          ],
          [
            -121.693675,
            38.5009
          ]
        ]
      },
      "properties": {
        "segment_id": "xst-00-06",
        "name": "Cross St 6 Row 0-1"
      }
    },
    {
      "type": "Feature",
      "geometry": {
        "type": "LineString",
        "coordinates": [
          [
            -121.692525,
            38.5
          ],
          [
            -121.692525,
            38.5009
          ]
        ]
      },
      "properties": {
        "segment_id": "xst-00-07",
        "name": "Cross St 7 Row 0-1"
      }
    },
    {
      "type": "Feature",
      "geometry": {
        "type": "LineString",
        "coordinates": [
          [
            -121.691375,
            38.5
          ],
          [
            -121.691375,
            38.5009
          ]
        ]
      },
      "properties": {
        "segment_id": "xst-00-08",
        "name": "Cross St 8 Row 0-1"
      }
    },
    {
      "type": "Feature",
      "geometry": {
        "type": "LineString",
        "coordinates": [
          [
            -121.690225,
            38.5
          ],
          [
            -121.690225,
            38.5009
          ]
        ]
      },
      "properties": {
        "segment_id": "xst-00-09",
        "name": "Cross St 9 Row 0-1"
      }
    },
    {
      "type": "Feature",
      "geometry": {
        "type": "LineString",
        "coordinates": [
          [
            -121.700575,
            38.5009
          ],
          [
            -121.700575,
            38.5018
          ]
        ]
      },
      "properties": {
        "segment_id": "xst-01-00",
        "name": "Cross St 0 Row 1-2"
      }
    },
    {
      "type": "Feature",
      "geometry": {
        "type": "LineString",
        "coordinates": [
          [
            -121.699425,
            38.5009
          ],
          [
            -121.699425,
            38.5018
          ]
        ]
      },
      "properties": {
        "segment_id": "xst-01-01",
        "name": "Cross St 1 Row 1-2"
      }
    },
    {
      "type": "Feature",
      "geometry": {
        "type": "LineString",
        "coordinates": [
          [
            -121.698275,
            38.5009
          ],
          [
            -121.698275,
            38.5018
          ]
        ]
      },
      "properties": {
        "segment_id": "xst-01-02",
        "name": "Cross St 2 Row 1-2"
      }
    },
    {
      "type": "Feature",
      "geometry": {
        "type": "LineString",
        "coordinates": [
          [
            -121.697125,
            38.5009
          ],
          [
            -121.697125,
            38.5018
          ]
        ]
      },
      "properties": {
        "segment_id": "xst-01-03",
        "name": "Cross St 3 Row 1-2"
      }
    },
    {
      "type": "Feature",
      "geometry": {
        "type": "LineString",
        "coordinates": [
          [
            -121.695975,
            38.5009
          ],
          [
            -121.695975,
            38.5018
          ]
        ]
      },
      "properties": {
        "segment_id": "xst-01-04",
        "name": "Cross St 4 Row 1-2"
      }
    },
    {
      "type": "Feature",
      "geometry": {
        "type": "LineString",
        "coordinates": [
          [
            -121.694825,
            38.5009
          ],
          [
            -121.694825,
            38.5018
          ]
        ]
      },
      "properties": {
        "segment_id": "xst-01-05",
        "name": "Cross St 5 Row 1-2"
      }
    },
    {
      "type": "Feature",
      "geometry": {
        "type": "LineString",
        "coordinates": [
          [
            -121.693675,
            38.5009
          ],
          [
            -121.693675,
            38.5018
          ]
        ]
      },
      "properties": {
        "segment_id": "xst-01-06",
        "name": "Cross St 6 Row 1-2"
      }
    },
    {
      "type": "Feature",
      "geometry": {
        "type": "LineString",
        "coordinates": [
          [
            -121.692525,
            38.5009
          ],
          [
            -121.692525,
            38.5018
          ]
        ]
      },
      "properties": {
        "segment_id": "xst-01-07",
        "name": "Cross St 7 Row 1-2"
      }
    },
    {
      "type": "Feature",
      "geometry": {
        "type": "LineString",
        "coordinates": [
          [
            -121.691375,
            38.5009
          ],
          [
            -121.691375,
            38.5018
          ]
        ]
      },
      "properties": {
        "segment_id": "xst-01-08",
        "name": "Cross St 8 Row 1-2"
      }
    },
    {
      "type": "Feature",
      "geometry": {
        "type": "LineString",
        "coordinates": [
          [
            -121.690225,
            38.5009
          ],
          [
            -121.690225,
            38.5018
          ]
        ]
      },
      "properties": {
        "segment_id": "xst-01-09",
        "name": "Cross St 9 Row 1-2"
      }
    },
    {
      "type": "Feature",
      "geometry": {
        "type": "LineString",
        "coordinates": [
          [
            -121.700575,
            38.5018
          ],
          [
            -121.700575,
            38.5027
          ]
        ]
      },
      "properties": {
        "segment_id": "xst-02-00",
        "name": "Cross St 0 Row 2-3"
      }
    },
    {
      "type": "Feature",
      "geometry": {
        "type": "LineString",
        "coordinates": [
          [
            -121.699425,
            38.5018
          ],
          [
            -121.699425,
            38.5027
          ]
        ]
      },
      "properties": {
        "segment_id": "xst-02-01",
        "name": "Cross St 1 Row 2-3"
      }
    },
    {
      "type": "Feature",
      "geometry": {
        "type": "LineString",
        "coordinates": [
          [
            -121.698275,
            38.5018
          ],
          [
            -121.698275,
            38.5027
          ]
        ]
      },
      "properties": {
        "segment_id": "xst-02-02",
        "name": "Cross St 2 Row 2-3"
      }
    },
    {
      "type": "Feature",
      "geometry": {
        "type": "LineString",
        "coordinates": [
          [
            -121.697125,
            38.5018
          ],
          [
            -121.697125,
            38.5027
          ]
        ]
      },
      "properties": {
        "segment_id": "xst-02-03",
        "name": "Cross St 3 Row 2-3"
      }
    },
    {
      "type": "Feature",
      "geometry": {
        "type": "LineString",
        "coordinates": [
          [
            -121.695975,
            38.5018
          ],
          [
            -121.695975,
            38.5027
          ]
        ]
      },
      "properties": {
        "segment_id": "xst-02-04",
        "name": "Cross St 4 Row 2-3"
      }
    },
    {
      "type": "Feature",
      "geometry": {
        "type": "LineString",
        "coordinates": [
          [
            -121.694825,
            38.5018
          ],
          [
            -121.694825,
            38.5027
          ]
        ]
      },
      "properties": {
        "segment_id": "xst-02-05",
        "name": "Cross St 5 Row 2-3"
      }
    },
    {
      "type": "Feature",
      "geometry": {
        "type": "LineString",
        "coordinates": [
          [
            -121.693675,
            38.5018
          ],
          [
            -121.693675,
            38.5027
          ]
        ]
      },
      "properties": {
        "segment_id": "xst-02-06",
        "name": "Cross St 6 Row 2-3"
      }
    },
    {
      "type": "Feature",
      "geometry": {
        "type": "LineString",
        "coordinates": [
          [
            -121.692525,
            38.5018
          ],
          [
            -121.692525,
            38.5027
          ]
        ]
      },
      "properties": {
        "segment_id": "xst-02-07",
        "name": "Cross St 7 Row 2-3"
      }
    },
    {
      "type": "Feature",
      "geometry": {
        "type": "LineString",
        "coordinates": [
          [
            -121.691375,
            38.5018
          ],
          [
            -121.691375,
            38.5027
          ]
        ]
      },
      "properties": {
        "segment_id": "xst-02-08",
        "name": "Cross St 8 Row 2-3"
      }
    },
    {
      "type": "Feature",
      "geometry": {
        "type": "LineString",
        "coordinates": [
          [
            -121.690225,
            38.5018
          ],
          [
            -121.690225,
            38.5027
          ]
        ]
      },
      "properties": {
        "segment_id": "xst-02-09",
        "name": "Cross St 9 Row 2-3"
      }
    },
    {
      "type": "Feature",
      "geometry": {
        "type": "LineString",
        "coordinates": [
          [
            -121.700575,
            38.5027
          ],
          [
            -121.700575,
            38.5036
          ]
        ]
      },
      "properties": {
        "segment_id": "xst-03-00",
        "name": "Cross St 0 Row 3-4"
      }
    },
    {
      "type": "Feature",
      "geometry": {
        "type": "LineString",
        "coordinates": [
          [
            -121.699425,
            38.5027
          ],
          [
            -121.699425,
            38.5036
          ]
        ]
      },
      "properties": {
        "segment_id": "xst-03-01",
        "name": "Cross St 1 Row 3-4"
      }
    },
    {
      "type": "Feature",
      "geometry": {
        "type": "LineString",
        "coordinates": [
          [
            -121.698275,
            38.5027
          ],
          [
            -121.698275,
            38.5036
          ]
        ]
      },
      "properties": {
        "segment_id": "xst-03-02",
        "name": "Cross St 2 Row 3-4"
      }
    },
    {
      "type": "Feature",
      "geometry": {
        "type": "LineString",
        "coordinates": [
          [
            -121.697125,
            38.5027
          ],
          [
            -121.697125,
            38.5036
          ]
        ]
      },
      "properties": {
        "segment_id": "xst-03-03",
        "name": "Cross St 3 Row 3-4"
      }
    },
    {
      "type": "Feature",
      "geometry": {
        "type": "LineString",
        "coordinates": [
          [
            -121.695975,
            38.5027
          ],
          [
            -121.695975,
            38.5036
          ]
        ]
      },
      "properties": {
        "segment_id": "xst-03-04",
        "name": "Cross St 4 Row 3-4"
      }
    },
    {
      "type": "Feature",
      "geometry": {
        "type": "LineString",
        "coordinates": [
          [
            -121.694825,
            38.5027
          ],
          [
            -121.694825,
            38.5036
          ]
        ]
      },
      "properties": {
        "segment_id": "xst-03-05",
        "name": "Cross St 5 Row 3-4"
      }
    },
    {
      "type": "Feature",
      "geometry": {
        "type": "LineString",
        "coordinates": [
          [
            -121.693675,
            38.5027
          ],
          [
            -121.693675,
            38.5036
          ]
        ]
      },
      "properties": {
        "segment_id": "xst-03-06",
        "name": "Cross St 6 Row 3-4"
      }
    },
    {
      "type": "Feature",
      "geometry": {
        "type": "LineString",
        "coordinates": [
          [
            -121.692525,
            38.5027
          ],
          [
            -121.692525,
            38.5036
          ]
        ]
      },
      "properties": {
        "segment_id": "xst-03-07",
        "name": "Cross St 7 Row 3-4"
      }
    },
    {
      "type": "Feature",
      "geometry": {
        "type": "LineString",
        "coordinates": [
          [
            -121.691375,
            38.5027
          ],
          [
            -121.691375,
            38.5036
          ]
        ]
      },
      "properties": {
        "segment_id": "xst-03-08",
        "name": "Cross St 8 Row 3-4"
      }
    },
    {
      "type": "Feature",
      "geometry": {
        "type": "LineString",
        "coordinates": [
          [
            -121.690225,
            38.5027
          ],
          [
            -121.690225,
            38.5036
          ]
        ]
      },
      "properties": {
        "segment_id": "xst-03-09",
        "name": "Cross St 9 Row 3-4"
      }
    },
    {
      "type": "Feature",
      "geometry": {
        "type": "LineString",
        "coordinates": [
          [
            -121.700575,
            38.5036
          ],
          [
            -121.700575,
            38.5045
          ]
        ]
      },
      "properties": {
        "segment_id": "xst-04-00",
        "name": "Cross St 0 Row 4-5"
      }
    },
    {
      "type": "Feature",
      "geometry": {
        "type": "LineString",
        "coordinates": [
          [
            -121.699425,
            38.5036
          ],
          [
            -121.699425,
            38.5045
          ]
        ]
      },
      "properties": {
        "segment_id": "xst-04-01",
        "name": "Cross St 1 Row 4-5"
      }
    },
    {
      "type": "Feature",
      "geometry": {
        "type": "LineString",
        "coordinates": [
          [
            -121.698275,
            38.5036
          ],
          [
            -121.698275,
            38.5045
          ]
        ]
      },
      "properties": {
        "segment_id": "xst-04-02",
        "name": "Cross St 2 Row 4-5"
      }
    },
    {
      "type": "Feature",
      "geometry": {
        "type": "LineString",
        "coordinates": [
          [
            -121.697125,
            38.5036
          ],
          [
            -121.697125,
            38.5045
          ]
        ]
      },
      "properties": {
        "segment_id": "xst-04-03",
        "name": "Cross St 3 Row 4-5"
      }
    },
    {
      "type": "Feature",
      "geometry": {
        "type": "LineString",
        "coordinates": [
          [
            -121.695975,
            38.5036
          ],
          [
            -121.695975,
            38.5045
          ]
        ]
      },
      "properties": {
        "segment_id": "xst-04-04",
        "name": "Cross St 4 Row 4-5"
      }
    },
    {
      "type": "Feature",
      "geometry": {
        "type": "LineString",
        "coordinates": [
          [
            -121.694825,
            38.5036
          ],
          [
            -121.694825,
            38.5045
          ]
        ]
      },
      "properties": {
        "segment_id": "xst-04-05",
        "name": "Cross St 5 Row 4-5"
      }
    },
    {
      "type": "Feature",
      "geometry": {
        "type": "LineString",
        "coordinates": [
          [
            -121.693675,
            38.5036
          ],
          [
            -121.693675,
            38.5045
          ]
        ]
      },
      "properties": {
        "segment_id": "xst-04-06",
        "name": "Cross St 6 Row 4-5"
      }
    },
    {
      "type": "Feature",
      "geometry": {
        "type": "LineString",
        "coordinates": [
          [
            -121.692525,
            38.5036
          ],
          [
            -121.692525,
            38.5045
          ]
        ]
      },
      "properties": {
        "segment_id": "xst-04-07",
        "name": "Cross St 7 Row 4-5"
      }
    },
    {
      "type": "Feature",
      "geometry": {
        "type": "LineString",
        "coordinates": [
          [
            -121.691375,
            38.5036
          ],
          [
            -121.691375,
            38.5045
          ]
        ]
      },
      "properties": {
        "segment_id": "xst-04-08",
        "name": "Cross St 8 Row 4-5"
      }
    },
    {
      "type": "Feature",
      "geometry": {
        "type": "LineString",
        "coordinates": [
          [
            -121.690225,
            38.5036
          ],
          [
            -121.690225,
            38.5045
          ]
        ]
      },
      "properties": {
        "segment_id": "xst-04-09",
        "name": "Cross St 9 Row 4-5"
      }
    },
    {
      "type": "Feature",
      "geometry": {
        "type": "LineString",
        "coordinates": [
          [
            -121.700575,
            38.5045
          ],
          [
            -121.700575,
            38.5054
          ]
        ]
      },
      "properties": {
        "segment_id": "xst-05-00",
        "name": "Cross St 0 Row 5-6"
      }
    },
    {
      "type": "Feature",
      "geometry": {
        "type": "LineString",
        "coordinates": [
          [
            -121.699425,
            38.5045
          ],
          [
            -121.699425,
            38.5054
          ]
        ]
      },
      "properties": {
        "segment_id": "xst-05-01",
        "name": "Cross St 1 Row 5-6"
      }
    },
    {
      "type": "Feature",
      "geometry": {
        "type": "LineString",
        "coordinates": [
          [
            -121.698275,
            38.5045
          ],
          [
            -121.698275,
            38.5054
          ]
        ]
      },
      "properties": {
        "segment_id": "xst-05-02",
        "name": "Cross St 2 Row 5-6"
      }
    },
    {
      "type": "Feature",
      "geometry": {
        "type": "LineString",
        "coordinates": [
          [
            -121.697125,
            38.5045
          ],
          [
            -121.697125,
            38.5054
          ]
        ]
      },
      "properties": {
        "segment_id": "xst-05-03",
        "name": "Cross St 3 Row 5-6"
      }
    },
    {
      "type": "Feature",
      "geometry": {
        "type": "LineString",
        "coordinates": [
          [
            -121.695975,
            38.5045
          ],
          [
            -121.695975,
            38.5054
          ]
        ]
      },
      "properties": {
        "segment_id": "xst-05-04",
        "name": "Cross St 4 Row 5-6"
      }
    },
    {
      "type": "Feature",
      "geometry": {
        "type": "LineString",
        "coordinates": [
          [
            -121.694825,
            38.5045
          ],
          [
            -121.694825,
            38.5054
          ]
        ]
      },
      "properties": {
        "segment_id": "xst-05-05",
        "name": "Cross St 5 Row 5-6"
      }
    },
    {
      "type": "Feature",
      "geometry": {
        "type": "LineString",
        "coordinates": [
          [
            -121.693675,
            38.5045
          ],
          [
            -121.693675,
            38.5054
          ]
        ]
      },
      "properties": {
        "segment_id": "xst-05-06",
        "name": "Cross St 6 Row 5-6"
      }
    },
    {
      "type": "Feature",
      "geometry": {
        "type": "LineString",
        "coordinates": [
          [
            -121.692525,
            38.5045
          ],
          [
            -121.692525,
            38.5054
          ]
        ]
      },
      "properties": {
        "segment_id": "xst-05-07",
        "name": "Cross St 7 Row 5-6"
      }
    },
    {
      "type": "Feature",
      "geometry": {
        "type": "LineString",
        "coordinates": [
          [
            -121.691375,
            38.5045
          ],
          [
            -121.691375,
            38.5054
          ]
        ]
      },
      "properties": {
        "segment_id": "xst-05-08",
        "name": "Cross St 8 Row 5-6"
      }
    },
    {
      "type": "Feature",
      "geometry": {
        "type": "LineString",
        "coordinates": [
          [
            -121.690225,
            38.5045
          ],
          [
            -121.690225,
            38.5054
          ]
        ]
      },
      "properties": {
        "segment_id": "xst-05-09",
        "name": "Cross St 9 Row 5-6"
      }
    },
    {
      "type": "Feature",
      "geometry": {
        "type": "LineString",
        "coordinates": [
          [
            -121.700575,
            38.5054
          ],
          [
            -121.700575,
            38.5063
          ]
        ]
      },
      "properties": {
        "segment_id": "xst-06-00",
        "name": "Cross St 0 Row 6-7"
      }
    },
    {
      "type": "Feature",
      "geometry": {
        "type": "LineString",
        "coordinates": [
          [
            -121.699425,
            38.5054
          ],
          [
            -121.699425,
            38.5063
          ]
        ]
      },
      "properties": {
        "segment_id": "xst-06-01",
        "name": "Cross St 1 Row 6-7"
      }
    },
    {
      "type": "Feature",
      "geometry": {
        "type": "LineString",
        "coordinates": [
          [
            -121.698275,
            38.5054
          ],
          [
            -121.698275,
            38.5063
          ]
        ]
      },
      "properties": {
        "segment_id": "xst-06-02",
        "name": "Cross St 2 Row 6-7"
      }
    },
    {
      "type": "Feature",
      "geometry": {
        "type": "LineString",
        "coordinates": [
          [
            -121.697125,
            38.5054
          ],
          [
            -121.697125,
            38.5063
          ]
        ]
      },
      "properties": {
        "segment_id": "xst-06-03",
        "name": "Cross St 3 Row 6-7"
      }
    },
    {
      "type": "Feature",
      "geometry": {
        "type": "LineString",
        "coordinates": [
          [
            -121.695975,
            38.5054
          ],
          [
            -121.695975,
            38.5063
          ]
        ]
      },
      "properties": {
        "segment_id": "xst-06-04",
        "name": "Cross St 4 Row 6-7"
      }
    },
    {
      "type": "Feature",
      "geometry": {
        "type": "LineString",
        "coordinates": [
          [
            -121.694825,
            38.5054
          ],
          [
            -121.694825,
            38.5063
          ]
        ]
      },
      "properties": {
        "segment_id": "xst-06-05",
        "name": "Cross St 5 Row 6-7"
      }
    },
    {
      "type": "Feature",
      "geometry": {
        "type": "LineString",
        "coordinates": [
          [
            -121.693675,
            38.5054
          ],
          [
            -121.693675,
            38.5063
          ]
        ]
      },
      "properties": {
        "segment_id": "xst-06-06",
        "name": "Cross St 6 Row 6-7"
      }
    },
    {
      "type": "Feature",
      "geometry": {
        "type": "LineString",
        "coordinates": [
          [
            -121.692525,
            38.5054
          ],
          [
            -121.692525,
            38.5063
          ]
        ]
      },
      "properties": {
        "segment_id": "xst-06-07",
        "name": "Cross St 7 Row 6-7"
      }
    },
    {
      "type": "Feature",
      "geometry": {
        "type": "LineString",
        "coordinates": [
          [
            -121.691375,
            38.5054
          ],
          [
            -121.691375,
            38.5063
          ]
        ]
      },
      "properties": {
        "segment_id": "xst-06-08",
        "name": "Cross St 8 Row 6-7"
      }
    },
    {
      "type": "Feature",
      "geometry": {
        "type": "LineString",
        "coordinates": [
          [
            -121.690225,
            38.5054
          ],
          [
            -121.690225,
            38.5063
          ]
        ]
      },
      "properties": {
        "segment_id": "xst-06-09",
        "name": "Cross St 9 Row 6-7"
      }
    },
    {
      "type": "Feature",
      "geometry": {
        "type": "LineString",
        "coordinates": [
          [
            -121.700575,
            38.5063
          ],
          [
            -121.700575,
            38.5072
          ]
        ]
      },
      "properties": {
        "segment_id": "xst-07-00",
        "name": "Cross St 0 Row 7-8"
      }
    },
    {
      "type": "Feature",
      "geometry": {
        "type": "LineString",
        "coordinates": [
          [
            -121.699425,
            38.5063
          ],
          [
            -121.699425,
            38.5072
          ]
        ]
      },
      "properties": {
        "segment_id": "xst-07-01",
        "name": "Cross St 1 Row 7-8"
      }
    },
    {
      "type": "Feature",
      "geometry": {
        "type": "LineString",
        "coordinates": [
          [
            -121.698275,
            38.5063
          ],
          [
            -121.698275,
            38.5072
          ]
        ]
      },
      "properties": {
        "segment_id": "xst-07-02",
        "name": "Cross St 2 Row 7-8"
      }
    },
    {
      "type": "Feature",
      "geometry": {
        "type": "LineString",
        "coordinates": [
          [
            -121.697125,
            38.5063
          ],
          [
            -121.697125,
            38.5072
          ]
        ]
      },
      "properties": {
        "segment_id": "xst-07-03",
        "name": "Cross St 3 Row 7-8"
      }
    },
    {
      "type": "Feature",
      "geometry": {
        "type": "LineString",
        "coordinates": [
          [
            -121.695975,
            38.5063
          ],
          [
            -121.695975,
            38.5072
          ]
        ]
      },
      "properties": {
        "segment_id": "xst-07-04",
        "name": "Cross St 4 Row 7-8"
      }
    },
    {
      "type": "Feature",
      "geometry": {
        "type": "LineString",
        "coordinates": [
          [
            -121.694825,
            38.5063
          ],
          [
            -121.694825,
            38.5072
          ]
        ]
      },
      "properties": {
        "segment_id": "xst-07-05",
        "name": "Cross St 5 Row 7-8"
      }
    },
    {
      "type": "Feature",
      "geometry": {
        "type": "LineString",
        "coordinates": [
          [
            -121.693675,
            38.5063
          ],
          [
            -121.693675,
            38.5072
          ]
        ]
      },
      "properties": {
        "segment_id": "xst-07-06",
        "name": "Cross St 6 Row 7-8"
      }
    },
    {
      "type": "Feature",
      "geometry": {
        "type": "LineString",
        "coordinates": [
          [
            -121.692525,
            38.5063
          ],
          [
            -121.692525,
            38.5072
          ]
        ]
      },
      "properties": {
        "segment_id": "xst-07-07",
        "name": "Cross St 7 Row 7-8"
      }
    },
    {
      "type": "Feature",
      "geometry": {
        "type": "LineString",
        "coordinates": [
          [
            -121.691375,
            38.5063
          ],
          [
            -121.691375,
            38.5072
          ]
        ]
      },
      "properties": {
        "segment_id": "xst-07-08",
        "name": "Cross St 8 Row 7-8"
      }
    },
    {
      "type": "Feature",
      "geometry": {
        "type": "LineString",
        "coordinates": [
          [
            -121.690225,
            38.5063
          ],
          [
            -121.690225,
            38.5072
          ]
        ]
      },
      "properties": {
        "segment_id": "xst-07-09",
        "name": "Cross St 9 Row 7-8"
      }
    }
  ]
}
